     2.100          NAVIGATION                              RINEX VERSION / TYPE
fic2rin                                 08/28/2014 00:13:28 PGM / RUN BY / DATE
                                                            END OF HEADER
24 14  8 27 10  0  0.0 -.342242419720D-04 -.682121026330D-12  .000000000000D+00
     .850000000000D+02 -.488125000000D+02  .458626246481D-08 -.273921542814D+01
    -.255927443504D-05  .215469766408D-02  .107847154140D-04  .515371541405D+04
     .295200000000D+06 -.149011611938D-07 -.200069766395D+00 -.577419996262D-07
     .956325404986D+00  .169843750000D+03  .276718613070D+00 -.799783314185D-08
    -.380372986919D-09  .100000000000D+01  .180700000000D+04  .000000000000D+00
     .340000000000D+01  .000000000000D+00  .279396772385D-08  .850000000000D+02
     .288006000000D+06  .400000000000D+01
26 14  8 27 10  0  0.0 -.340840779245D-04 -.131876731757D-10  .000000000000D+00
     .890000000000D+02 -.235000000000D+02  .460912055980D-08 -.207993668461D+01
    -.110454857349D-05  .212183786789D-01  .334717333317D-05  .515368212318D+04
     .295200000000D+06  .301748514175D-06 -.113653061201D+01  .130385160446D-07
     .973662445680D+00  .313187500000D+03  .129160402166D+01 -.795390274055D-08
     .342871424828D-10  .100000000000D+01  .180700000000D+04  .000000000000D+00
     .340000000000D+01  .000000000000D+00 -.605359673500D-08  .890000000000D+02
     .288006000000D+06  .400000000000D+01
27 14  8 27 10  0  0.0  .953162088990D-05  .318323145621D-11  .000000000000D+00
     .360000000000D+02 -.105000000000D+02  .479234247744D-08 -.962798459072D+00
    -.581145286560D-06  .146445631981D-02  .273436307907D-05  .515367332458D+04
     .295200000000D+06  .484287738800D-07  .190332573565D+01 -.558793544769D-08
     .964085370551D+00  .331156250000D+03  .339677261699D+00 -.841142179805D-08
    -.156792245312D-09  .100000000000D+01  .180700000000D+04  .000000000000D+00
     .240000000000D+01  .000000000000D+00  .186264514923D-08  .360000000000D+02
     .288006000000D+06  .400000000000D+01
28 14  8 27 10  0  0.0  .380103010684D-03  .272848410532D-11  .000000000000D+00
     .660000000000D+02  .790625000000D+02  .411874299075D-08  .211350700748D-02
     .425800681114D-05  .192388112191D-01  .841729342937D-05  .515367789268D+04
     .295200000000D+06 -.260770320892D-06  .924104591866D+00  .949949026108D-07
     .987292207655D+00  .235968750000D+03 -.170952936282D+01 -.821284209784D-08
     .309655755548D-09  .100000000000D+01  .180700000000D+04  .000000000000D+00
     .240000000000D+01  .000000000000D+00 -.107102096081D-07  .660000000000D+02
     .288006000000D+06  .400000000000D+01
29 14  8 27 10  0  0.0  .556418206543D-03  .250111042988D-11  .000000000000D+00
     .680000000000D+02 -.184375000000D+02  .473626871317D-08  .183289482185D+01
    -.994652509689D-06  .122115109116D-02  .288896262646D-05  .515364368820D+04
     .295200000000D+06  .372529029846D-08  .195859934352D+01  .465661287308D-07
     .970086064481D+00  .327218750000D+03 -.781449674356D+00 -.834570477496D-08
    -.182864759908D-09  .100000000000D+01  .180700000000D+04  .000000000000D+00
     .240000000000D+01  .000000000000D+00 -.977888703346D-08  .680000000000D+02
     .288006000000D+06  .400000000000D+01
30 14  8 27 10  0  0.0 -.542076304555D-04 -.511590769747D-11  .000000000000D+00
     .440000000000D+02 -.300937500000D+02  .454768942952D-08  .263285881437D+01
    -.151060521603D-05  .101342785638D-02  .110697001219D-04  .515367169571D+04
     .295200000000D+06 -.372529029846D-07 -.110739980079D+00  .465661287308D-07
     .958666408921D+00  .166625000000D+03  .303798483802D+01 -.796497463031D-08
    -.264653881039D-09  .100000000000D+01  .180700000000D+04  .000000000000D+00
     .240000000000D+01  .000000000000D+00  .325962901115D-08  .440000000000D+02
     .288006000000D+06  .400000000000D+01
31 14  8 27 10  0  0.0  .332327093929D-03 -.341060513165D-12  .000000000000D+00
     .260000000000D+02 -.506562500000D+02  .410945688966D-08  .264067169954D+01
    -.240094959736D-05  .799044361338D-02  .108107924461D-04  .515361481667D+04
     .295200000000D+06  .447034835815D-07 -.157345502826D+00  .150874257088D-06
     .977961814161D+00  .179218750000D+03 -.632940348872D+00 -.770032074927D-08
    -.393944980818D-09  .100000000000D+01  .180700000000D+04  .000000000000D+00
     .240000000000D+01  .000000000000D+00 -.130385160446D-07  .260000000000D+02
     .288006000000D+06  .400000000000D+01
32 14  8 27 10  0  0.0 -.353674869984D-03  .852651282912D-11  .000000000000D+00
     .990000000000D+02  .671250000000D+02  .459554856590D-08 -.308475130517D+01
     .356882810593D-05  .114181379322D-01  .894069671631D-05  .515367284584D+04
     .295200000000D+06 -.154599547386D-06 -.219885083649D+01  .372529029846D-08
     .947487622823D+00  .199062500000D+03 -.105344583133D+00 -.799140430264D-08
     .551451541599D-09  .100000000000D+01  .180700000000D+04  .000000000000D+00
     .240000000000D+01  .000000000000D+00 -.325962901115D-08  .990000000000D+02
     .288006000000D+06  .400000000000D+01
 6 14  8 27  9 59 44.0 -.502262264490D-05 -.341060513165D-12  .000000000000D+00
     .270000000000D+02 -.671562500000D+02  .425696303388D-08 -.436569674708D-01
    -.342912971973D-05  .468039885163D-03  .105164945126D-04  .515359476852D+04
     .295184000000D+06  .111758708954D-07  .295041770415D+01 -.558793544769D-07
     .961586867393D+00  .180500000000D+03  .213753639953D+01 -.789890044948D-08
    -.353943314588D-09  .100000000000D+01  .180700000000D+04  .000000000000D+00
     .240000000000D+01  .000000000000D+00  .465661287308D-08  .270000000000D+02
     .290946000000D+06  .400000000000D+01
22 14  8 27  9 59 44.0  .262474175543D-03  .306954461848D-11  .000000000000D+00
     .220000000000D+02  .566875000000D+02  .528807741251D-08  .172669069388D+00
     .299327075481D-05  .736701511778D-02  .955536961555D-05  .515372743797D+04
     .295184000000D+06 -.106170773506D-06 -.229326141337D+01  .111758708954D-06
     .923446714679D+00  .177281250000D+03 -.204744806386D+01 -.849571102332D-08
     .486805991709D-09  .100000000000D+01  .180700000000D+04  .000000000000D+00
     .240000000000D+01  .000000000000D+00 -.172294676304D-07  .220000000000D+02
     .292206000000D+06  .400000000000D+01
 6 14  8 27 11 59 44.0 -.502541661263D-05 -.341060513165D-12  .000000000000D+00
     .290000000000D+02 -.707500000000D+02  .430375069706D-08  .100489762213D+01
    -.379979610443D-05  .468778656796D-03  .100638717413D-04  .515359669495D+04
     .302384000000D+06  .670552253723D-07  .295036083028D+01  .298023223877D-07
     .961583925464D+00  .188687500000D+03  .213920904740D+01 -.795568852922D-08
    -.396087927223D-09  .100000000000D+01  .180700000000D+04  .000000000000D+00
     .240000000000D+01  .000000000000D+00  .465661287308D-08  .290000000000D+02
     .295206000000D+06  .400000000000D+01
22 14  8 27 11 59 44.0  .262496527284D-03  .306954461848D-11  .000000000000D+00
     .230000000000D+02  .590000000000D+02  .524057543386D-08  .122277526648D+01
     .309757888317D-05  .736805680208D-02  .993721187115D-05  .515372936440D+04
     .302384000000D+06 -.102445483208D-06 -.229332221078D+01 -.558793544769D-08
     .923449823380D+00  .168031250000D+03 -.204740222917D+01 -.849642533879D-08
     .409659921123D-09  .100000000000D+01  .180700000000D+04  .000000000000D+00
     .240000000000D+01  .000000000000D+00 -.172294676304D-07  .230000000000D+02
     .295206000000D+06  .400000000000D+01
 1 14  8 27 12  0  0.0  .202963128686D-04  .568434188608D-12  .000000000000D+00
     .106000000000D+03 -.813437500000D+02  .422660462648D-08 -.197876004872D+01
    -.413320958614D-05  .344354053959D-02  .100266188383D-04  .515368074036D+04
     .302400000000D+06 -.987201929092D-07  .295892123293D+01 -.353902578354D-07
     .961664576138D+00  .187781250000D+03  .386095356844D+00 -.785461289044D-08
    -.326799326789D-09  .100000000000D+01  .180700000000D+04  .000000000000D+00
     .240000000000D+01  .000000000000D+00  .558793544769D-08  .106000000000D+03
     .295206000000D+06  .400000000000D+01
 2 14  8 27 12  0  0.0  .514967832714D-03  .216004991671D-11  .000000000000D+00
     .770000000000D+02 -.642187500000D+02  .484805908398D-08 -.128942272010D+01
    -.342167913914D-05  .137127197813D-01  .981055200100D-05  .515366701508D+04
     .302400000000D+06  .396743416786D-06  .292732689108D+01  .931322574615D-08
     .940203768335D+00  .179781250000D+03 -.239318990658D+01 -.812248119109D-08
    -.389301930274D-09  .100000000000D+01  .180700000000D+04  .000000000000D+00
     .240000000000D+01  .000000000000D+00 -.200234353542D-07  .770000000000D+02
     .295206000000D+06  .400000000000D+01
 4 14  8 27 12  0  0.0 -.239815562963D-06 -.227373675443D-12  .000000000000D+00
     .590000000000D+02 -.845625000000D+02  .473162566263D-08  .304661727623D+01
    -.433251261711D-05  .109765508678D-01  .982731580734D-05  .515199187279D+04
     .302400000000D+06  .372529029846D-07  .294310889081D+01 -.931322574615D-07
     .939220836604D+00  .177781250000D+03  .106712897519D+01 -.800604776974D-08
    -.348585948575D-09  .100000000000D+01  .180700000000D+04  .000000000000D+00
     .240000000000D+01  .000000000000D+00 -.651925802231D-08  .590000000000D+02
     .295206000000D+06  .400000000000D+01
 5 14  8 27 12  0  0.0 -.345470849425D-03  .363797880709D-11  .000000000000D+00
     .630000000000D+02  .663125000000D+02  .463947896721D-08  .109638623081D+01
     .358186662197D-05  .375714187976D-02  .937283039093D-05  .515367105293D+04
     .302400000000D+06 -.894069671631D-07 -.228775218092D+01  .856816768646D-07
     .947098474910D+00  .191093750000D+03  .317605981107D+00 -.811962392921D-08
     .416803075807D-09  .100000000000D+01  .180700000000D+04  .000000000000D+00
     .240000000000D+01  .000000000000D+00 -.102445483208D-07  .630000000000D+02
     .295206000000D+06  .400000000000D+01
